     2.100          NAVIGATION                              RINEX VERSION / TYPE
fic2rin                                 04/20/2010 00:05:51 PGM / RUN BY / DATE
                                                            END OF HEADER
31 10  4 20  0  0  0.0 -.412478111684D-04  .204636307899D-11  .000000000000D+00
     .870000000000D+02 -.766562500000D+02  .431196532495D-08 -.254343204537D+01
    -.381097197533D-05  .748839590233D-02  .445917248726D-05  .515367147446D+04
     .172800000000D+06 -.540167093277D-07  .314014372101D+01  .106170773506D-06
     .976779254091D+00  .302250000000D+03 -.106106989620D+01 -.798854704076D-08
    -.967897459671D-10  .100000000000D+01  .158000000000D+04  .000000000000D+00
     .240000000000D+01  .000000000000D+00 -.130385160446D-07  .870000000000D+02
     .165606000000D+06  .400000000000D+01
32 10  4 20  0  0  0.0  .476823188365D-04 -.852651282912D-11  .000000000000D+00
     .620000000000D+02  .102843750000D+03  .425303429881D-08 -.172453496413D+01
     .544823706150D-05  .126611085143D-01  .935047864914D-05  .515376442528D+04
     .172800000000D+06 -.279396772385D-06  .112896689105D+01  .141561031342D-06
     .959581867945D+00  .203343750000D+03 -.993072932834D+00 -.794568811266D-08
    -.696457581682D-10  .100000000000D+01  .158000000000D+04  .000000000000D+00
     .240000000000D+01  .000000000000D+00 -.325962901115D-08  .620000000000D+02
     .165606000000D+06  .400000000000D+01
